$$SOE
2461295.500000000, A.D. 2026-Sep-12 00:00:00.0000, -3.820826241343424E+08, -3.237315347196519E+08, 5.194593596073863E+07,
2461302.500000000, A.D. 2026-Sep-19 00:00:00.0000, -3.772354284557109E+08, -3.308897281167030E+08, 5.290630207676744E+07,
2461309.500000000, A.D. 2026-Sep-26 00:00:00.0000, -3.722456553435795E+08, -3.379228845462183E+08, 5.384667333199435E+07,
2461316.500000000, A.D. 2026-Oct-03 00:00:00.0000, -3.671160693625311E+08, -3.448291452102954E+08, 5.476682135910919E+07,
2461323.500000000, A.D. 2026-Oct-10 00:00:00.0000, -3.618494207500113E+08, -3.516066920826729E+08, 5.566652339930589E+07,
2461330.500000000, A.D. 2026-Oct-17 00:00:00.0000, -3.564484461016800E+08, -3.582537460495158E+08, 5.654556205940685E+07,
2461337.500000000, A.D. 2026-Oct-24 00:00:00.0000, -3.509158690995537E+08, -3.647685652215376E+08, 5.740372507259451E+07,
2461344.500000000, A.D. 2026-Oct-31 00:00:00.0000, -3.452544011823217E+08, -3.711494434814130E+08, 5.824080504799739E+07,
2461351.500000000, A.D. 2026-Nov-07 00:00:00.0000, -3.394667418170785E+08, -3.773947091897584E+08, 5.905659918387391E+07,
2461358.500000000, A.D. 2026-Nov-14 00:00:00.0000, -3.335555781699842E+08, -3.835027231596228E+08, 5.985090899830741E+07,
2461365.500000000, A.D. 2026-Nov-21 00:00:00.0000, -3.275235859858465E+08, -3.894718752148974E+08, 6.062354029907715E+07,
2461372.500000000, A.D. 2026-Nov-28 00:00:00.0000, -3.213734326729123E+08, -3.953005823385779E+08, 6.137430323820557E+07,
2461379.500000000, A.D. 2026-Dec-05 00:00:00.0000, -3.151077789724522E+08, -4.009872890660399E+08, 6.210301206563166E+07,
2461386.500000000, A.D. 2026-Dec-12 00:00:00.0000, -3.087292790480389E+08, -4.065304670107983E+08, 6.280948482133506E+07,
2461393.500000000, A.D. 2026-Dec-19 00:00:00.0000, -3.022405808812017E+08, -4.119286135140066E+08, 6.349354313955086E+07,
2461400.500000000, A.D. 2026-Dec-26 00:00:00.0000, -2.956443271149205E+08, -4.171802502835178E+08, 6.415501210703982E+07,
2461407.500000000, A.D. 2027-Jan-02 00:00:00.0000, -2.889431560683928E+08, -4.222839222118350E+08, 6.479372013431555E+07,
2461414.500000000, A.D. 2027-Jan-09 00:00:00.0000, -2.821397028060791E+08, -4.272381963518052E+08, 6.540949883062103E+07,
2461421.500000000, A.D. 2027-Jan-16 00:00:00.0000, -2.752366002264939E+08, -4.320416610405573E+08, 6.600218288008490E+07,
2461428.500000000, A.D. 2027-Jan-23 00:00:00.0000, -2.682364801261809E+08, -4.366929252106294E+08, 6.657160991156116E+07,
2461435.500000000, A.D. 2027-Jan-30 00:00:00.0000, -2.611419740528865E+08, -4.411906179353569E+08, 6.711762034094854E+07,
2461442.500000000, A.D. 2027-Feb-06 00:00:00.0000, -2.539557135250948E+08, -4.455333878677557E+08, 6.764005717469372E+07,
2461449.500000000, A.D. 2027-Feb-13 00:00:00.0000, -2.466803300801413E+08, -4.497199013522589E+08, 6.813876591617526E+07,
2461456.500000000, A.D. 2027-Feb-20 00:00:00.0000, -2.393184575162058E+08, -4.537488399989669E+08, 6.861359472674866E+07,
2461463.500000000, A.D. 2027-Feb-27 00:00:00.0000, -2.318727349331973E+08, -4.576189009330794E+08, 6.906439445037411E+07,
2461470.500000000, A.D. 2027-Mar-06 00:00:00.0000, -2.243458075555035E+08, -4.613287977963580E+08, 6.949101838187119E+07,
2461477.500000000, A.D. 2027-Mar-13 00:00:00.0000, -2.167403269375949E+08, -4.648772604499708E+08, 6.989332209271008E+07,
2461484.500000000, A.D. 2027-Mar-20 00:00:00.0000, -2.090589516817540E+08, -4.682630342119324E+08, 7.027116334917939E+07,
2461491.500000000, A.D. 2027-Mar-27 00:00:00.0000, -2.013043484653069E+08, -4.714848791774530E+08, 7.062440205908319E+07,
2461498.500000000, A.D. 2027-Apr-03 00:00:00.0000, -1.934791931740995E+08, -4.745415696703833E+08, 7.095290022426680E+07,
2461505.500000000, A.D. 2027-Apr-10 00:00:00.0000, -1.855861720813460E+08, -4.774318938038749E+08, 7.125652189537263E+07,
2461512.500000000, A.D. 2027-Apr-17 00:00:00.0000, -1.776279830508769E+08, -4.801546531658232E+08, 7.153513312595981E+07,
2461519.500000000, A.D. 2027-Apr-24 00:00:00.0000, -1.696073366870420E+08, -4.827086626920992E+08, 7.178860191397986E+07,
2461526.500000000, A.D. 2027-May-01 00:00:00.0000, -1.615269571330622E+08, -4.850927507001710E+08, 7.201679810564266E+07,
2461533.500000000, A.D. 2027-May-08 00:00:00.0000, -1.533895822116846E+08, -4.873057583348580E+08, 7.221959329477476E+07,
2461540.500000000, A.D. 2027-May-15 00:00:00.0000, -1.451979644060317E+08, -4.893465374725620E+08, 7.239686093286975E+07,
2461547.500000000, A.D. 2027-May-22 00:00:00.0000, -1.369548742449899E+08, -4.912139496752197E+08, 7.254847658129592E+07,
2461554.500000000, A.D. 2027-May-29 00:00:00.0000, -1.286631027374950E+08, -4.929068676628199E+08, 7.267431787788187E+07,
2461561.500000000, A.D. 2027-Jun-05 00:00:00.0000, -1.203254619717443E+08, -4.944241761740407E+08, 7.277426439296639E+07,
2461568.500000000, A.D. 2027-Jun-12 00:00:00.0000, -1.119447858879408E+08, -4.957647717840841E+08, 7.284819759459023E+07,
2461575.500000000, A.D. 2027-Jun-19 00:00:00.0000, -1.035239315564058E+08, -4.969275626153165E+08, 7.289600087695979E+07,
2461582.500000000, A.D. 2027-Jun-26 00:00:00.0000, -9.506578068219620E+07, -4.979114682028249E+08, 7.291755960539578E+07,
2461589.500000000, A.D. 2027-Jul-03 00:00:00.0000, -8.657324120447719E+07, -4.987154195078198E+08, 7.291276116661750E+07,
2461596.500000000, A.D. 2027-Jul-10 00:00:00.0000, -7.804924895416890E+07, -4.993383590720175E+08, 7.288149502216172E+07,
2461603.500000000, A.D. 2027-Jul-17 00:00:00.0000, -6.949676933412668E+07, -4.997792413543050E+08, 7.282365275910015E+07,
2461610.500000000, A.D. 2027-Jul-24 00:00:00.0000, -6.091879886641676E+07, -5.000370333152604E+08, 7.273912811937180E+07,
2461617.500000000, A.D. 2027-Jul-31 00:00:00.0000, -5.231836619653790E+07, -5.001107150168191E+08, 7.262781699003769E+07,
2461624.500000000, A.D. 2027-Aug-07 00:00:00.0000, -4.369853275674552E+07, -4.999992790879976E+08, 7.248961746766405E+07,
2461631.500000000, A.D. 2027-Aug-14 00:00:00.0000, -3.506239539089301E+07, -4.997017293121036E+08, 7.232443018758310E+07,
2461638.500000000, A.D. 2027-Aug-21 00:00:00.0000, -2.641309032320495E+07, -4.992170817016885E+08, 7.213215858658278E+07,
2461645.500000000, A.D. 2027-Aug-28 00:00:00.0000, -1.775379504026394E+07, -4.985443668613245E+08, 7.191270888307920E+07,
2461652.500000000, A.D. 2027-Sep-04 00:00:00.0000, -9.087729268162955E+06, -4.976826311399050E+08, 7.166599008816360E+07,
2461659.500000000, A.D. 2027-Sep-11 00:00:00.0000, -4.181564410980304E+05, -4.966309372375231E+08, 7.139191412187752E+07,
2461666.500000000, A.D. 2027-Sep-18 00:00:00.0000, 8.251614470980831E+06, -4.953883649207264E+08, 7.109039596967983E+07,
2461673.500000000, A.D. 2027-Sep-25 00:00:00.0000, 1.691822700389789E+07, -4.939540119274634E+08, 7.076135385205428E+07,
2461680.500000000, A.D. 2027-Oct-02 00:00:00.0000, 2.557827518464389E+07, -4.923269950380479E+08, 7.040470940292038E+07,
2461687.500000000, A.D. 2027-Oct-09 00:00:00.0000, 3.422830148305383E+07, -4.905064513209787E+08, 7.002038785481998E+07,
2461694.500000000, A.D. 2027-Oct-16 00:00:00.0000, 4.286479479302921E+07, -4.884915396135491E+08, 6.960831822123398E+07,
2461701.500000000, A.D. 2027-Oct-23 00:00:00.0000, 5.148418870305029E+07, -4.862814422486178E+08, 6.916843345257396E+07,
2461708.500000000, A.D. 2027-Oct-30 00:00:00.0000, 6.008286043015854E+07, -4.838753664231023E+08, 6.870067058225609E+07,
2461715.500000000, A.D. 2027-Nov-06 00:00:00.0000, 6.865712925315745E+07, -4.812725440854733E+08, 6.820497106245425E+07,
2461722.500000000, A.D. 2027-Nov-13 00:00:00.0000, 7.720325245923649E+07, -4.784722324228372E+08, 6.768128130222024E+07,
2461729.500000000, A.D. 2027-Nov-20 00:00:00.0000, 8.571742170714071E+07, -4.754737171379839E+08, 6.712955296339177E+07,
2461736.500000000, A.D. 2027-Nov-27 00:00:00.0000, 9.419576142694789E+07, -4.722763155585817E+08, 6.654974310901274E+07,
2461743.500000000, A.D. 2027-Dec-04 00:00:00.0000, 1.026343272354896E+08, -4.688793786730461E+08, 6.594181446590976E+07,
2461750.500000000, A.D. 2027-Dec-11 00:00:00.0000, 1.110291038192006E+08, -4.652822930664480E+08, 6.530573577477744E+07,
2461757.500000000, A.D. 2027-Dec-18 00:00:00.0000, 1.193760025614318E+08, -4.614844831054835E+08, 6.464148217659357E+07,
2461764.500000000, A.D. 2027-Dec-25 00:00:00.0000, 1.276708590681255E+08, -4.574854133846338E+08, 6.394903562290938E+07,
2461771.500000000, A.D. 2028-Jan-01 00:00:00.0000, 1.359094306355277E+08, -4.532845914286444E+08, 6.322838530887489E+07,
$$EOE